SL-16 R/B               
1 25400U 98043G   26064.87261437  .00000078  00000+0  51437-4 0  9999
2 25400  98.8250  18.2092 0010390  30.9002 329.2787 14.26048600438446
SL-16 R/B               
1 25407U 98045B   26065.32405560 -.00000074  00000+0 -13230-4 0  9993
2 25407  71.0115 188.6511 0006542  13.1999 346.9294 14.16189110426623
ISS (ZARYA)             
1 25544U 98067A   26065.22200803  .00008136  00000+0  15844-3 0  9998
2 25544  51.6317  89.5003 0008136 162.2758 197.8515 15.48470661555798
CZ-4B R/B               
1 25732U 99025C   26065.06138137  .00000057  00000+0  48519-4 0  9994
2 25732  98.6633 109.4287 0036951 357.0932  32.9430 14.18264511387653
OKEAN-O                 
1 25860U 99039A   26065.13711170  .00000802  00000+0  11202-3 0  9999
2 25860  97.9448 125.0646 0001350  70.0365 290.0993 14.80328179433867
SL-16 R/B               
1 25861U 99039B   26065.12032204  .00000689  00000+0  94228-4 0  9996
2 25861  97.9972 124.2222 0013430 268.9169  91.0505 14.81725315436330
DELTA 2 R/B             
1 25876U 99041E   26065.04371818  .00001313  00000+0  24927-3 0  9996
2 25876  51.7640 315.8429 0502356 337.6757  20.2978 14.11825671362515
HELIOS 1B               
1 25977U 99064A   26065.21637474  .00002740  00000+0  30732-3 0  9991
2 25977  98.1699 327.3579 0002494  79.5565 280.5931 14.87682252684748
TERRA                   
1 25994U 99068A   26065.22407828  .00000628  00000+0  13705-3 0  9997
2 25994  97.9600 118.7911 0002496 159.7278 270.0945 14.61010573394573
SL-16 R/B               
1 26070U 00006B   26065.26795198  .00000080  00000+0  64813-4 0  9990
2 26070  71.0011 105.0327 0017034 194.9728 165.0893 14.15825510348076
TITAN 4B R/B            
1 26474U 00047B   26065.25109268  .00005431  00000+0  34026-3 0  9996
2 26474  67.9893  50.1787 0038272  39.4556 320.9368 15.09520809392395
ENVISAT                 
1 27386U 02009A   26065.29547954  .00000195  00000+0  76885-4 0  9993
2 27386  98.3724  18.9737 0001328  84.3919  85.2665 14.39035489258681
